[{"OBJECT_NAME":"STARLINK-6126","OBJECT_ID":"2023-046AJ","EPOCH":"2026-03-09T22:00:01.999584","MEAN_MOTION":15.125351,"ECCENTRICITY":0.00023023,"INCLINATION":42.9998,"RA_OF_ASC_NODE":144.9048,"ARG_OF_PERICENTER":271.6853,"MEAN_ANOMALY":109.3366,"EPHEMERIS_TYPE":0,"CLASSIFICATION_TYPE":"U","NORAD_CAT_ID":56124,"ELEMENT_SET_NO":999,"REV_AT_EPOCH":577,"BSTAR":0.0675572,"MEAN_MOTION_DOT":0.01299298,"MEAN_MOTION_DDOT":0},{"OBJECT_NAME":"HERMES-1","OBJECT_ID":"2025-052AJ","EPOCH":"2026-03-09T16:38:32.274240","MEAN_MOTION":15.20586525,"ECCENTRICITY":0.00077337,"INCLINATION":97.402,"RA_OF_ASC_NODE":322.1122,"ARG_OF_PERICENTER":159.5432,"MEAN_ANOMALY":200.6114,"EPHEMERIS_TYPE":0,"CLASSIFICATION_TYPE":"U","NORAD_CAT_ID":63242,"ELEMENT_SET_NO":999,"REV_AT_EPOCH":5467,"BSTAR":0.00030412642,"MEAN_MOTION_DOT":6.601e-5,"MEAN_MOTION_DDOT":0}]
